{
    "CCSDS_OMM_VERS": "3.0",
    "COMMENT": "GENERATED VIA SPACE-TRACK.ORG API",
    "CREATION_DATE": "2025-11-22T18:56:57",
    "ORIGINATOR": "18 SPCS",
    "OBJECT_NAME": "GALILEO 22 (2C8)",
    "OBJECT_ID": "2017-079D",
    "CENTER_NAME": "EARTH",
    "REF_FRAME": "TEME",
    "TIME_SYSTEM": "UTC",
    "MEAN_ELEMENT_THEORY": "SGP4",
    "EPOCH": "2025-11-20T22:11:20.315616",
    "MEAN_MOTION": "1.70473929",
    "ECCENTRICITY": "0.00031981",
    "INCLINATION": "55.1367",
    "RA_OF_ASC_NODE": "227.2342",
    "ARG_OF_PERICENTER": "300.1733",
    "MEAN_ANOMALY": "59.8686",
    "EPHEMERIS_TYPE": "0",
    "CLASSIFICATION_TYPE": "U",
    "NORAD_CAT_ID": "43058",
    "ELEMENT_SET_NO": "999",
    "REV_AT_EPOCH": "4946",
    "BSTAR": "0.00000000000000",
    "MEAN_MOTION_DOT": "0.00000019",
    "MEAN_MOTION_DDOT": "0.0000000000000",
    "SEMIMAJOR_AXIS": "29600.328",
    "PERIOD": "844.704",
    "APOAPSIS": "23231.660",
    "PERIAPSIS": "23212.727",
    "OBJECT_TYPE": "PAYLOAD",
    "RCS_SIZE": "LARGE",
    "COUNTRY_CODE": "ESA",
    "LAUNCH_DATE": "2017-12-12",
    "SITE": "FRGUI",
    "DECAY_DATE": null,
    "FILE": "4894246",
    "GP_ID": "303253956",
    "TLE_LINE0": "0 GALILEO 22 (2C8)",
    "TLE_LINE1": "1 43058U 17079D   25324.92454069  .00000019  00000-0  00000-0 0  9999",
    "TLE_LINE2": "2 43058  55.1367 227.2342 0003198 300.1733  59.8686  1.70473929 49466"
}